{
"type": "FeatureCollection",
"name": "avoid_time",
"crs": { "type": "name", "properties": { "name": "urn:ogc:def:crs:OGC:1.3:CRS84" } },
"features": [
{ "type": "Feature", "properties": { "iteration:": 0, "length": 1000000 }, "geometry": { "type": "MultiPolygon", "coordinates": [ [ [ [ 39.115789689630901, 22.304213256100695 ], [ 39.116034627005206, 22.304786197468388 ], [ 39.116857246860889, 22.304602343405232 ], [ 39.116616930947998, 22.303948163031137 ], [ 39.115789689630901, 22.304213256100695 ] ] ], [ [ [ 39.113402822485654, 22.306394446577755 ], [ 39.114202861188829, 22.307075401040464 ], [ 39.115450921567458, 22.305940475091059 ], [ 39.114682884410712, 22.305220039050987 ], [ 39.113402822485654, 22.306394446577755 ] ] ], [ [ [ 39.094450170689129, 22.308354958107461 ], [ 39.094214785503539, 22.308491317214603 ], [ 39.094093793117878, 22.308894288125995 ], [ 39.094091593255968, 22.309160899554342 ], [ 39.094733952830239, 22.309311504258506 ], [ 39.094865944523832, 22.308957379426356 ], [ 39.095270719050546, 22.308576795990145 ], [ 39.095266319328402, 22.308509634099394 ], [ 39.095039733587214, 22.308265408771348 ], [ 39.094707554492203, 22.308043570394013 ], [ 39.094450170689129, 22.308354958107461 ] ] ], [ [ [ 39.101090340127769, 22.312293564475123 ], [ 39.100020531738465, 22.311417818339091 ], [ 39.099223038211619, 22.311501794234001 ], [ 39.099320293519668, 22.312149606583631 ], [ 39.100156689169722, 22.313145312296935 ], [ 39.101090340127769, 22.312293564475123 ] ] ], [ [ [ 39.106440257676958, 22.313263121128099 ], [ 39.107704576683318, 22.31447475241912 ], [ 39.108845705631808, 22.313329101320573 ], [ 39.107594354000952, 22.312147451333239 ], [ 39.106440257676958, 22.313263121128099 ] ] ], [ [ [ 39.105941013762504, 22.315014584756941 ], [ 39.106446741364181, 22.315542418801197 ], [ 39.107477647630247, 22.31476266325954 ], [ 39.107069175336534, 22.314270815215249 ], [ 39.105941013762504, 22.315014584756941 ] ] ], [ [ [ 39.103788381609604, 22.316342680121121 ], [ 39.104640487858887, 22.315832612543826 ], [ 39.103713195764477, 22.314758373402693 ], [ 39.102810965619454, 22.315438468245617 ], [ 39.103788381609604, 22.316342680121121 ] ] ], [ [ [ 39.100029089134352, 22.318112445245859 ], [ 39.102109230858701, 22.317695122706873 ], [ 39.104005584960674, 22.316860473885633 ], [ 39.102727425588284, 22.315508023069555 ], [ 39.10077259360645, 22.316744550043449 ], [ 39.099561266096543, 22.317084593040345 ], [ 39.100029089134352, 22.318112445245859 ] ] ], [ [ [ 39.107935817074235, 22.320296131232361 ], [ 39.107884183201548, 22.321422021096936 ], [ 39.107839925596238, 22.32219307982454 ], [ 39.107670271443624, 22.322766253463097 ], [ 39.107677647710943, 22.323346248200675 ], [ 39.107950569608875, 22.323926240528095 ], [ 39.108385769392072, 22.324383409251155 ], [ 39.109020128397248, 22.32462905152903 ], [ 39.109433199377094, 22.324724578964794 ], [ 39.110421619223388, 22.32473822573564 ], [ 39.1096913687403, 22.32099896051626 ], [ 39.10914552494453, 22.320964842671756 ], [ 39.10873983023194, 22.320712370361861 ], [ 39.108289877914075, 22.320309778436311 ], [ 39.107935817074235, 22.320296131232361 ] ] ] ] } }
]
}
